{
    "links": {
        "self": "http://www.neowsapp.com/rest/v1/neo/3674501?api_key=iIulBulltgU6a56xZRHN4H3l9WmuAYTsLGpBGhQ2"
    },
    "id": "3674501",
    "neo_reference_id": "3674501",
    "name": "(2014 MQ60)",
    "designation": "2014 MQ60",
    "nasa_jpl_url": "http://ssd.jpl.nasa.gov/sbdb.cgi?sstr=3674501",
    "absolute_magnitude_h": 22.4,
    "estimated_diameter": {
        "kilometers": {
            "estimated_diameter_min": 0.0880146521,
            "estimated_diameter_max": 0.1968067451
        },
        "meters": {
            "estimated_diameter_min": 88.0146520901,
            "estimated_diameter_max": 196.8067450894
        },
        "miles": {
            "estimated_diameter_min": 0.0546897524,
            "estimated_diameter_max": 0.122290004
        },
        "feet": {
            "estimated_diameter_min": 288.7619911632,
            "estimated_diameter_max": 645.6914415591
        }
    },
    "is_potentially_hazardous_asteroid": false,
    "close_approach_data": [
        {
            "close_approach_date": "1997-07-06",
            "close_approach_date_full": "1997-Jul-06 05:15",
            "epoch_date_close_approach": 868166100000,
            "relative_velocity": {
                "kilometers_per_second": "6.069818138",
                "kilometers_per_hour": "21851.3452967582",
                "miles_per_hour": "13577.5761928662"
            },
            "miss_distance": {
                "astronomical": "0.3774123474",
                "lunar": "146.8134031386",
                "kilometers": "56460083.282740038",
                "miles": "35082668.9469190044"
            },
            "orbiting_body": "Earth"
        },
        {
            "close_approach_date": "2014-07-01",
            "close_approach_date_full": "2014-Jul-01 06:45",
            "epoch_date_close_approach": 1404197100000,
            "relative_velocity": {
                "kilometers_per_second": "4.9059208979",
                "kilometers_per_hour": "17661.3152323113",
                "miles_per_hour": "10974.0544564325"
            },
            "miss_distance": {
                "astronomical": "0.2163670861",
                "lunar": "84.1667964929",
                "kilometers": "32368055.218666607",
                "miles": "20112576.8802968966"
            },
            "orbiting_body": "Earth"
        },
        {
            "close_approach_date": "2031-06-30",
            "close_approach_date_full": "2031-Jun-30 22:11",
            "epoch_date_close_approach": 1940623860000,
            "relative_velocity": {
                "kilometers_per_second": "5.0184085442",
                "kilometers_per_hour": "18066.2707592897",
                "miles_per_hour": "11225.6780726264"
            },
            "miss_distance": {
                "astronomical": "0.2147358598",
                "lunar": "83.5322494622",
                "kilometers": "32124027.238698626",
                "miles": "19960944.9248119988"
            },
            "orbiting_body": "Earth"
        },
        {
            "close_approach_date": "2048-06-30",
            "close_approach_date_full": "2048-Jun-30 10:19",
            "epoch_date_close_approach": 2477125140000,
            "relative_velocity": {
                "kilometers_per_second": "6.2470421338",
                "kilometers_per_hour": "22489.3516818455",
                "miles_per_hour": "13974.0085492001"
            },
            "miss_distance": {
                "astronomical": "0.2760696149",
                "lunar": "107.3910801961",
                "kilometers": "41299426.360760263",
                "miles": "25662273.5651391094"
            },
            "orbiting_body": "Earth"
        }
    ],
    "orbital_data": {
        "orbit_id": "13",
        "orbit_determination_date": "2017-04-06 08:39:48",
        "first_observation_date": "2014-06-30",
        "last_observation_date": "2014-08-04",
        "data_arc_in_days": 35,
        "observations_used": 40,
        "orbit_uncertainty": "6",
        "minimum_orbit_intersection": ".201851",
        "jupiter_tisserand_invariant": "3.461",
        "epoch_osculation": "2459000.5",
        "eccentricity": ".4629591640020973",
        "semi_major_axis": "2.262231205647854",
        "inclination": "6.713987656431688",
        "ascending_node_longitude": "293.5901804808398",
        "orbital_period": "1242.807627860872",
        "perihelion_distance": "1.214910537901666",
        "perihelion_argument": "341.8999404336948",
        "aphelion_distance": "3.309551873394041",
        "perihelion_time": "2459316.753153919471",
        "mean_anomaly": "268.3919885437372",
        "mean_motion": ".2896667126348702",
        "equinox": "J2000",
        "orbit_class": {
            "orbit_class_type": "AMO",
            "orbit_class_description": "Near-Earth asteroid orbits similar to that of 1221 Amor",
            "orbit_class_range": "1.017 AU < q (perihelion) < 1.3 AU"
        }
    },
    "is_sentry_object": false
}